CRE (WAAS/PRN 138)      
1 28868U 05036A   24059.59137014 -.00000065  00000+0  00000+0 0  9996
2 28868   2.1471  86.9759 0002376 279.7441 256.7664  1.00272567 38035
IOR-W (EGNOS/PRN 126)   
1 28899U 05044A   24059.55565072 -.00000251  00000+0  00000+0 0  9991
2 28899   4.0689  42.0096 0002206 313.7527 145.6227  1.00271844 67102
QZS-1 (QZSS/PRN 183)    
1 37158U 10045A   24059.55339161 -.00000001  00000+0  00000+0 0  9997
2 37158  43.1041 125.6763 0001536 167.1783 194.4158  0.87715793 49032
GSAT-8 (GAGAN/PRN 127)  
1 37605U 11022A   24059.50674205  .00000093  00000+0  00000+0 0  9996
2 37605   0.0185 182.0778 0006964 108.9416 104.2910  1.00273239 44792
LUCH 5A (SDCM/PRN 140)  
1 37951U 11074B   24059.63067863 -.00000038  00000+0  00000+0 0  9997
2 37951   6.5997  86.7393 0002796 265.2841 199.9975  1.00269127 44635
SES-5 (EGNOS/PRN 136)   
1 38652U 12036A   24059.52896505  .00000042  00000+0  00000+0 0  9990
2 38652   0.0449 330.8406 0001952   9.7980  12.5933  1.00272263 42649
GSAT-10 (GAGAN/PRN 128) 
1 38779U 12051B   24059.55877024 -.00000156  00000+0  00000+0 0  9992
2 38779   0.0847 272.8083 0003778   3.1704 166.0655  1.00271454 41687
LUCH 5B (SDCM/PRN 125)  
1 38977U 12061A   24058.76935465 -.00000127  00000+0  00000+0 0  9997
2 38977   8.6448  57.6502 0001039 205.6109 154.4624  1.00271385 41184
ASTRA 5B (EGNOS/PRN 123)
1 39617U 14011B   24059.56493198  .00000146  00000+0  00000+0 0  9997
2 39617   0.1087 294.1995 0003708  27.7307  62.8118  1.00274734 36246
LUCH 5V (SDCM/PRN 141)  
1 39727U 14023A   24059.57911667 -.00000259  00000+0  00000+0 0  9995
2 39727   3.0234  76.6340 0003118 271.2113 113.2187  1.00269346 35943
GSAT-15 (GAGAN/PRN 139) 
1 41028U 15065A   24059.57885559 -.00000250  00000+0  00000+0 0  9990
2 41028   0.0641 278.0767 0001450  60.6841 121.0085  1.00273174 30375
E 117 W B (WAAS/PRN 131)
1 41589U 16038B   24059.58376133 -.00000003  00000+0  00000+0 0  9993
2 41589   0.0073 284.1205 0000254 352.2816 334.6305  1.00272869 28244
SES-15 (WAAS/PRN 133)   
1 42709U 17026A   24059.01854846  .00000068  00000+0  00000+0 0  9996
2 42709   0.0258  49.9337 0000370 298.3799  46.5048  1.00270083 25714
QZS-2 (QZSS/PRN 184)    
1 42738U 17028A   24059.30604925 -.00000119  00000+0  00000+0 0  9991
2 42738  40.7518 255.3246 0747157 270.2038 243.6547  1.00265622 24710
QZS-3 (QZSS/PRN 189)    
1 42917U 17048A   24059.51918990 -.00000339  00000+0  00000+0 0  9999
2 42917   0.0608 203.3750 0001237 143.8367 124.5779  1.00272753 23832
QZS-4 (QZSS/PRN 185)    
1 42965U 17062A   24059.25892280 -.00000312  00000+0  00000+0 0  9993
2 42965  40.5631 354.1853 0749723 269.5708 126.0588  1.00285240 23394
BEIDOU-3 G1 (PRN 130)   
1 43683U 18085A   24059.52280324 -.00000270  00000+0  00000+0 0  9990
2 43683   1.9239 114.3150 0002752 319.8997  51.8570  1.00269410 19646
BEIDOU-3 G2 (PRN 144)   
1 45344U 20017A   24059.55857058 -.00000131  00000+0  00000+0 0  9997
2 45344   2.1906  24.9827 0002247 287.6526 126.3160  1.00270896 14842
BEIDOU-3 G3 (PRN 143)   
1 45807U 20040A   24059.50859878 -.00000345  00000+0  00000+0 0  9991
2 45807   0.6249  24.1958 0008469 298.0781 129.1917  1.00274909 13655
GALAXY 30 (WAAS/PRN 135)
1 46114U 20056C   24059.17742715  .00000045  00000+0  00000+0 0  9990
2 46114   0.0176 128.0338 0001916 221.2580 107.0491  1.00271918 12862
